[{"OBJECT_NAME":"JILIN-1 08","OBJECT_ID":"2018-008F","EPOCH":"2026-03-09T22:37:53.184288","MEAN_MOTION":15.32205976,"ECCENTRICITY":0.00081321,"INCLINATION":97.1902,"RA_OF_ASC_NODE":90.9961,"ARG_OF_PERICENTER":76.0646,"MEAN_ANOMALY":284.15,"EPHEMERIS_TYPE":0,"CLASSIFICATION_TYPE":"U","NORAD_CAT_ID":43160,"ELEMENT_SET_NO":999,"REV_AT_EPOCH":44974,"BSTAR":0.00036689195,"MEAN_MOTION_DOT":0.00011349,"MEAN_MOTION_DDOT":0},{"OBJECT_NAME":"STARLINK-35294","OBJECT_ID":"2025-216X","EPOCH":"2026-03-09T22:10:55.598304","MEAN_MOTION":15.30218428,"ECCENTRICITY":0.00018703,"INCLINATION":53.1617,"RA_OF_ASC_NODE":331.5029,"ARG_OF_PERICENTER":140.7085,"MEAN_ANOMALY":219.4052,"EPHEMERIS_TYPE":0,"CLASSIFICATION_TYPE":"U","NORAD_CAT_ID":65755,"ELEMENT_SET_NO":999,"REV_AT_EPOCH":2658,"BSTAR":0.0010310085,"MEAN_MOTION_DOT":0.00030319,"MEAN_MOTION_DDOT":0}]
